[{"OBJECT_NAME":"STARLINK-30077","OBJECT_ID":"2023-107D","EPOCH":"2026-03-09T02:47:30.883488","MEAN_MOTION":15.27564952,"ECCENTRICITY":0.00010009,"INCLINATION":43.0018,"RA_OF_ASC_NODE":338.9783,"ARG_OF_PERICENTER":268.7747,"MEAN_ANOMALY":91.299,"EPHEMERIS_TYPE":0,"CLASSIFICATION_TYPE":"U","NORAD_CAT_ID":57460,"ELEMENT_SET_NO":999,"REV_AT_EPOCH":14506,"BSTAR":-3.6264863e-5,"MEAN_MOTION_DOT":-1.259e-5,"MEAN_MOTION_DDOT":0},{"OBJECT_NAME":"COSMOS 1975","OBJECT_ID":"1988-093A","EPOCH":"2026-03-09T14:15:08.474112","MEAN_MOTION":15.28069249,"ECCENTRICITY":0.0012117,"INCLINATION":82.5181,"RA_OF_ASC_NODE":117.7814,"ARG_OF_PERICENTER":163.8427,"MEAN_ANOMALY":196.3201,"EPHEMERIS_TYPE":0,"CLASSIFICATION_TYPE":"U","NORAD_CAT_ID":19573,"ELEMENT_SET_NO":999,"REV_AT_EPOCH":1939,"BSTAR":0.0002787,"MEAN_MOTION_DOT":7.676e-5,"MEAN_MOTION_DDOT":0}]
